PROBA-1                 
1 26958U 01049B   26166.61000021  .00001766  00000+0  11688-3 0  9991
2 26958  97.9595 175.0873 0056325 127.0395 233.6003 15.07490600343385
CUTE-1 (CO-55)          
1 27844U 03031E   26166.49171906  .00000237  00000+0  12167-3 0  9991
2 27844  98.6736 175.0719 0009420 182.9125 177.2000 14.24334794191435
CUBESAT XI-IV (CO-57)   
1 27848U 03031J   26166.47932631  .00000199  00000+0  10658-3 0  9993
2 27848  98.6767 174.7737 0008908 202.2653 157.8140 14.23619986191135
APRIZESAT 4             
1 35684U 09041D   26166.43639101  .00000551  00000+0  72440-4 0  9999
2 35684  98.1413 241.7220 0042508 328.8513  31.0181 14.83877188911102
APRIZESAT 3             
1 35686U 09041F   26166.36022073  .00001450  00000+0  12938-3 0  9991
2 35686  98.2057 319.4965 0062760  73.6341 287.1767 14.96235706916101
PROBA-2                 
1 36037U 09059B   26166.45230860  .00000149  00000+0  45362-4 0  9998
2 36037  98.2449 349.8291 0011998 288.0626  71.9264 14.54861753881272
APRIZESAT 5             
1 37792U 11044E   26166.38582629  .00000964  00000+0  12883-3 0  9995
2 37792  98.2453  99.3751 0052492  10.1175 350.1081 14.81072391798527
APRIZESAT 6             
1 37793U 11044F   26166.32828894  .00000650  00000+0  98786-4 0  9996
2 37793  98.2366  76.7899 0044489  91.8000  26.4080 14.76913279796874
PROBA-V                 
1 39159U 13021A   26166.50260594  .00000049  00000+0  39535-4 0  9997
2 39159  98.3583 145.1923 0005072 127.3390 232.8252 14.23596663680877
APRIZESAT 7             
1 39416U 13066A   26166.40973713  .00001043  00000+0  10864-3 0  9993
2 39416  97.7709 119.6552 0034860 215.2754 144.6158 14.91560426680966
APRIZESAT 8             
1 39425U 13066K   26166.39265641  .00000825  00000+0  95293-4 0  9992
2 39425  97.8221 113.8855 0044486 292.6774  66.9742 14.87649694679406
BUGSAT-1 (TITA)         
1 40014U 14033E   26166.58372427  .00005412  00000+0  28643-3 0  9996
2 40014  98.0436 259.0381 0027821 183.8897 176.2122 15.15573930655593
SAUDISAT 4              
1 40016U 14033G   26166.63100611  .00000572  00000+0  81931-4 0  9990
2 40016  97.7580 312.8195 0046193  78.9100 281.7301 14.79542932645841
APRIZESAT 9             
1 40018U 14033J   26166.37499561  .00000582  00000+0  92962-4 0  9995
2 40018  97.9058 299.6179 0065549 205.0413 154.7612 14.74212203643296
APRIZESAT 10            
1 40019U 14033K   26166.28991171  .00000342  00000+0  61835-4 0  9999
2 40019  97.9647 293.2916 0077407 280.0162  79.2317 14.70880854641975
TECHDEMOSAT-1 (TDS-1)   
1 40076U 14037H   26166.57157413  .00006597  00000+0  37504-3 0  9994
2 40076  98.3810 158.6245 0004455 273.1359  86.9360 15.13273755647982
TECHNOSAT               
1 42829U 17042E   26166.38757556  .00003540  00000+0  25302-3 0  9992
2 42829  97.4276 324.1135 0018842  99.9086 260.4269 15.04949457486437
FLYING LAPTOP           
1 42831U 17042G   26166.58573528  .00003288  00000+0  26018-3 0  9996
2 42831  97.4673 322.1799 0019504 126.8484 233.4533 15.01137329486217
HAWK-A                  
1 43765U 18099H   26166.37916571  .00005151  00000+0  20855-3 0  9996
2 43765  97.3915 218.6385 0033146 292.6256  67.1476 15.24624414412824
HAWK-B                  
1 43794U 18099AN  26166.59568121  .00004796  00000+0  20557-3 0  9999
2 43794  97.3963 218.2707 0030602 310.8069  49.0513 15.22811399412797
HAWK-C                  
1 43799U 18099AT  26166.42528122  .00006260  00000+0  22641-3 0  9997
2 43799  97.3892 219.5876 0038794 292.3050  67.4078 15.28081756413645
SALSAT                  
1 46495U 20068K   26166.57567589  .00006463  00000+0  22682-3 0  9998
2 46495  97.8844 169.5420 0008147 315.1312  44.9267 15.29779983315116
HAWK-2C                 
1 47502U 21006CT  26166.58738374  .00005621  00000+0  16966-3 0  9997
2 47502  97.2275 210.9291 0006522 191.3316 168.7782 15.34646901299250
HAWK-2A                 
1 47505U 21006CW  26166.58989174  .00005650  00000+0  17045-3 0  9997
2 47505  97.2319 211.6085 0005926 194.6057 165.5016 15.34661800299256
HAWK-2B                 
1 47508U 21006CZ  26166.58551769  .00006215  00000+0  18673-3 0  9991
2 47508  97.2189 209.9385 0006509 192.8547 167.2532 15.34748348299254
HAWK-3B                 
1 48931U 21059BE  26166.53907349  .00037920  00000+0  32352-3 0  9991
2 48931  97.6653   3.0913 0003321 339.5031  20.6096 15.69438456277596
HAWK-3C                 
1 48948U 21059BX  26166.53875129  .00038758  00000+0  33058-3 0  9993
2 48948  97.6771   8.7743 0003649 341.3056  18.8070 15.69439647277593
HAWK-3A                 
1 48957U 21059CG  26166.53863403  .00039884  00000+0  33997-3 0  9998
2 48957  97.6715   5.9805 0003770 342.6233  17.4898 15.69448522277590
HAWK-5C                 
1 52754U 22057Y   26166.43157832  .00015908  00000+0  27218-3 0  9998
2 52754  97.6590 325.9849 0005117  88.4219 271.7618 15.51339272226074
HAWK-5B                 
1 52756U 22057AA  26166.43142839  .00015765  00000+0  26971-3 0  9997
2 52756  97.6600 324.3338 0005768  81.3501 278.8403 15.51339994226073
